start=new Date('2023-03-27T00:00:00.000Z').valueOf();
sats=[{"CENTER_NAME":"EARTH","EPHEMERIS_TYPE":"0","PERIOD":"95.595","MEAN_ELEMENT_THEORY":"SGP4","OBJECT_ID":"2021-005F","MEAN_MOTION_DOT":"0.00029140","RCS_SIZE":"LARGE","SITE":"AFETR","MEAN_ANOMALY":"283.8645","DECAY_DATE":null,"EPOCH":"2023-03-26T18:25:52.723776","REV_AT_EPOCH":"12091","GP_ID":"228917409","BSTAR":"0.00196970000000","RA_OF_ASC_NODE":"190.0863","ECCENTRICITY":"0.00013770","SEMIMAJOR_AXIS":"6925.499","REF_FRAME":"TEME","APOAPSIS":"548.317","TLE_LINE2":"2 47354  53.0538 190.0863 0001377  76.2497 283.8645 15.06350973120917","ELEMENT_SET_NO":"999","MEAN_MOTION":"15.06350973","LAUNCH_DATE":"2021-01-20","COUNTRY_CODE":"US","MEAN_MOTION_DDOT":"0.0000000000000","INCLINATION":"53.0538","FILE":"3871964","PERIAPSIS":"546.410","NORAD_CAT_ID":"47354","ARG_OF_PERICENTER":"76.2497","OBJECT_TYPE":"PAYLOAD","OBJECT_NAME":"STARLINK-2046","TLE_LINE1":"1 47354U 21005F   23085.76797134  .00029140  00000-0  19697-2 0  9993","TIME_SYSTEM":"UTC","CLASSIFICATION_TYPE":"U"},{"MEAN_ELEMENT_THEORY":"SGP4","PERIOD":"95.600","EPHEMERIS_TYPE":"0","CENTER_NAME":"EARTH","MEAN_MOTION_DOT":"0.00036524","OBJECT_ID":"2021-005G","EPOCH":"2023-03-26T12:35:00.244032","DECAY_DATE":null,"SITE":"AFETR","MEAN_ANOMALY":"277.8514","RCS_SIZE":"LARGE","GP_ID":"228885118","REV_AT_EPOCH":"12174","APOAPSIS":"548.541","REF_FRAME":"TEME","SEMIMAJOR_AXIS":"6925.708","ECCENTRICITY":"0.00013970","RA_OF_ASC_NODE":"176.1796","BSTAR":"0.00246600000000","MEAN_MOTION_DDOT":"0.0000000000000","COUNTRY_CODE":"US","LAUNCH_DATE":"2021-01-20","TLE_LINE2":"2 47355  53.0547 176.1796 0001397  82.2634 277.8514 15.06282698121748","ELEMENT_SET_NO":"999","MEAN_MOTION":"15.06282698","NORAD_CAT_ID":"47355","PERIAPSIS":"546.606","FILE":"3871549","INCLINATION":"53.0547","TIME_SYSTEM":"UTC","CLASSIFICATION_TYPE":"U","OBJECT_NAME":"STARLINK-2047","TLE_LINE1":"1 47355U 21005G   23085.52430838  .00036524  00000-0  24660-2 0  9993","ARG_OF_PERICENTER":"82.2634","OBJECT_TYPE":"PAYLOAD"},{"GP_ID":"228916908","REV_AT_EPOCH":"12084","SITE":"AFETR","MEAN_ANOMALY":"273.5103","DECAY_DATE":null,"EPOCH":"2023-03-26T18:27:51.406272","RCS_SIZE":"LARGE","MEAN_MOTION_DOT":"0.00036532","OBJECT_ID":"2021-005H","PERIOD":"95.595","MEAN_ELEMENT_THEORY":"SGP4","CENTER_NAME":"EARTH","EPHEMERIS_TYPE":"0","TIME_SYSTEM":"UTC","CLASSIFICATION_TYPE":"U","ARG_OF_PERICENTER":"86.6011","OBJECT_TYPE":"PAYLOAD","OBJECT_NAME":"STARLINK-2049","TLE_LINE1":"1 47356U 21005H   23085.76934498  .00036532  00000-0  24612-2 0  9997","NORAD_CAT_ID":"47356","INCLINATION":"53.0535","PERIAPSIS":"546.567","FILE":"3871964","MEAN_MOTION":"15.06362767","TLE_LINE2":"2 47356  53.0535 195.0825 0001099  86.6011 273.5103 15.06362767120848","ELEMENT_SET_NO":"999","LAUNCH_DATE":"2021-01-20","COUNTRY_CODE":"US","MEAN_MOTION_DDOT":"0.0000000000000","REF_FRAME":"TEME","SEMIMAJOR_AXIS":"6925.463","APOAPSIS":"548.089","BSTAR":"0.00246120000000","RA_OF_ASC_NODE":"195.0825","ECCENTRICITY":"0.00010990"},{"EPHEMERIS_TYPE":"0","CENTER_NAME":"EARTH","MEAN_ELEMENT_THEORY":"SGP4","PERIOD":"95.589","OBJECT_ID":"2021-005J","MEAN_MOTION_DOT":"0.00057285","RCS_SIZE":"LARGE","EPOCH":"2023-03-26T15:28:36.552864","DECAY_DATE":null,"SITE":"AFETR","MEAN_ANOMALY":"284.5199","REV_AT_EPOCH":"12040","GP_ID":"228917159","ECCENTRICITY":"0.00010190","RA_OF_ASC_NODE":"225.6408","BSTAR":"0.00382790000000","APOAPSIS":"547.750","REF_FRAME":"TEME","SEMIMAJOR_AXIS":"6925.179","COUNTRY_CODE":"US","MEAN_MOTION_DDOT":"0.0000000000000","LAUNCH_DATE":"2021-01-20","ELEMENT_SET_NO":"999","TLE_LINE2":"2 47357  53.0522 225.6408 0001019  75.5903 284.5199 15.06455247120406","MEAN_MOTION":"15.06455247","FILE":"3871964","PERIAPSIS":"546.339","INCLINATION":"53.0522","NORAD_CAT_ID":"47357","TLE_LINE1":"1 47357U 21005J   23085.64486751  .00057285  00000-0  38279-2 0  9991","OBJECT_NAME":"STARLINK-2050","ARG_OF_PERICENTER":"75.5903","OBJECT_TYPE":"PAYLOAD","TIME_SYSTEM":"UTC","CLASSIFICATION_TYPE":"U"},{"RA_OF_ASC_NODE":"195.0267","ECCENTRICITY":"0.00012530","BSTAR":"0.00247750000000","APOAPSIS":"548.186","REF_FRAME":"TEME","SEMIMAJOR_AXIS":"6925.453","LAUNCH_DATE":"2021-01-20","MEAN_MOTION_DDOT":"0.0000000000000","COUNTRY_CODE":"US","TLE_LINE2":"2 47358  53.0536 195.0267 0001253  73.8004 286.3123 15.06365789120844","ELEMENT_SET_NO":"999","MEAN_MOTION":"15.06365789","PERIAPSIS":"546.451","FILE":"3871964","INCLINATION":"53.0536","NORAD_CAT_ID":"47358","OBJECT_NAME":"STARLINK-2055","TLE_LINE1":"1 47358U 21005K   23085.77945174  .00036780  00000-0  24775-2 0  9998","ARG_OF_PERICENTER":"73.8004","OBJECT_TYPE":"PAYLOAD","CLASSIFICATION_TYPE":"U","TIME_SYSTEM":"UTC","CENTER_NAME":"EARTH","EPHEMERIS_TYPE":"0","MEAN_ELEMENT_THEORY":"SGP4","PERIOD":"95.594","OBJECT_ID":"2021-005K","MEAN_MOTION_DOT":"0.00036780","RCS_SIZE":"LARGE","DECAY_DATE":null,"EPOCH":"2023-03-26T18:42:24.630336","SITE":"AFETR","MEAN_ANOMALY":"286.3123","REV_AT_EPOCH":"12084","GP_ID":"228917910"},{"CLASSIFICATION_TYPE":"U","TIME_SYSTEM":"UTC","ARG_OF_PERICENTER":"90.0465","OBJECT_TYPE":"PAYLOAD","OBJECT_NAME":"STARLINK-2069","TLE_LINE1":"1 47359U 21005L   23085.85729853  .00033499  00000-0  22581-2 0  9999","NORAD_CAT_ID":"47359","INCLINATION":"53.0527","PERIAPSIS":"546.394","FILE":"3871964","TLE_LINE2":"2 47359  53.0527 219.6857 0001254  90.0465 270.0668 15.06384139120503","ELEMENT_SET_NO":"999","MEAN_MOTION":"15.06384139","LAUNCH_DATE":"2021-01-20","MEAN_MOTION_DDOT":"0.0000000000000","COUNTRY_CODE":"US","REF_FRAME":"TEME","SEMIMAJOR_AXIS":"6925.397","APOAPSIS":"548.131","BSTAR":"0.00225810000000","RA_OF_ASC_NODE":"219.6857","ECCENTRICITY":"0.00012540","GP_ID":"228916158","REV_AT_EPOCH":"12050","SITE":"AFETR","MEAN_ANOMALY":"270.0668","DECAY_DATE":null,"EPOCH":"2023-03-26T20:34:30.592992","RCS_SIZE":"LARGE","MEAN_MOTION_DOT":"0.00033499","OBJECT_ID":"2021-005L","PERIOD":"95.593","MEAN_ELEMENT_THEORY":"SGP4","CENTER_NAME":"EARTH","EPHEMERIS_TYPE":"0"},{"REV_AT_EPOCH":"12092","GP_ID":"228916408","RCS_SIZE":"LARGE","DECAY_DATE":null,"EPOCH":"2023-03-26T19:08:21.363936","SITE":"AFETR","MEAN_ANOMALY":"264.0108","OBJECT_ID":"2021-005M","MEAN_MOTION_DOT":"0.00031139","CENTER_NAME":"EARTH","EPHEMERIS_TYPE":"0","MEAN_ELEMENT_THEORY":"SGP4","PERIOD":"95.596","TLE_LINE1":"1 47360U 21005M   23085.79746949  .00031139  00000-0  21036-2 0  9992","OBJECT_NAME":"STARLINK-2070","ARG_OF_PERICENTER":"96.1018","OBJECT_TYPE":"PAYLOAD","CLASSIFICATION_TYPE":"U","TIME_SYSTEM":"UTC","FILE":"3871964","PERIAPSIS":"546.567","INCLINATION":"53.0520","NORAD_CAT_ID":"47360","LAUNCH_DATE":"2021-01-20","MEAN_MOTION_DDOT":"0.0000000000000","COUNTRY_CODE":"US","TLE_LINE2":"2 47360  53.0520 189.9559 0001201  96.1018 264.0108 15.06339726120929","MEAN_MOTION":"15.06339726","ELEMENT_SET_NO":"999","RA_OF_ASC_NODE":"189.9559","ECCENTRICITY":"0.00012010","BSTAR":"0.00210360000000","APOAPSIS":"548.230","SEMIMAJOR_AXIS":"6925.533","REF_FRAME":"TEME"},{"GP_ID":"228917660","REV_AT_EPOCH":"12081","SITE":"AFETR","MEAN_ANOMALY":"240.3908","EPOCH":"2023-03-26T14:07:31.573632","DECAY_DATE":null,"RCS_SIZE":"LARGE","MEAN_MOTION_DOT":"0.00036337","OBJECT_ID":"2021-005N","PERIOD":"95.585","MEAN_ELEMENT_THEORY":"SGP4","EPHEMERIS_TYPE":"0","CENTER_NAME":"EARTH","TIME_SYSTEM":"UTC","CLASSIFICATION_TYPE":"U","ARG_OF_PERICENTER":"119.7252","OBJECT_TYPE":"PAYLOAD","TLE_LINE1":"1 47361U 21005N   23085.58855988  .00036337  00000-0  24386-2 0  9990","OBJECT_NAME":"STARLINK-2071","NORAD_CAT_ID":"47361","INCLINATION":"53.0551","FILE":"3871964","PERIAPSIS":"545.690","TLE_LINE2":"2 47361  53.0551 195.8845 0001717 119.7252 240.3908 15.06509255120811","MEAN_MOTION":"15.06509255","ELEMENT_SET_NO":"999","COUNTRY_CODE":"US","MEAN_MOTION_DDOT":"0.0000000000000","LAUNCH_DATE":"2021-01-20","REF_FRAME":"TEME","SEMIMAJOR_AXIS":"6925.014","APOAPSIS":"548.068","BSTAR":"0.00243860000000","ECCENTRICITY":"0.00017170","RA_OF_ASC_NODE":"195.8845"},{"MEAN_MOTION":"15.06378565","TLE_LINE2":"2 47362  53.0517 224.4981 0001220  65.0524 295.0592 15.06378565120441","ELEMENT_SET_NO":"999","COUNTRY_CODE":"US","MEAN_MOTION_DDOT":"0.0000000000000","LAUNCH_DATE":"2021-01-20","BSTAR":"0.00214420000000","ECCENTRICITY":"0.00012200","RA_OF_ASC_NODE":"224.4981","SEMIMAJOR_AXIS":"6925.414","REF_FRAME":"TEME","APOAPSIS":"548.124","ARG_OF_PERICENTER":"65.0524","OBJECT_TYPE":"PAYLOAD","TLE_LINE1":"1 47362U 21005P   23085.89923269  .00031782  00000-0  21442-2 0  9992","OBJECT_NAME":"STARLINK-2076","CLASSIFICATION_TYPE":"U","TIME_SYSTEM":"UTC","INCLINATION":"53.0517","FILE":"3871964","PERIAPSIS":"546.434","NORAD_CAT_ID":"47362","OBJECT_ID":"2021-005P","MEAN_MOTION_DOT":"0.00031782","EPHEMERIS_TYPE":"0","CENTER_NAME":"EARTH","PERIOD":"95.594","MEAN_ELEMENT_THEORY":"SGP4","REV_AT_EPOCH":"12044","GP_ID":"228917410","RCS_SIZE":"LARGE","SITE":"AFETR","MEAN_ANOMALY":"295.0592","EPOCH":"2023-03-26T21:34:53.704416","DECAY_DATE":null},{"DECAY_DATE":null,"EPOCH":"2023-03-26T21:40:07.249152","SITE":"AFETR","MEAN_ANOMALY":"304.0786","RCS_SIZE":"LARGE","GP_ID":"228916659","REV_AT_EPOCH":"12044","MEAN_ELEMENT_THEORY":"SGP4","PERIOD":"95.588","CENTER_NAME":"EARTH","EPHEMERIS_TYPE":"0","MEAN_MOTION_DOT":"0.00032513","OBJECT_ID":"2021-005Q","NORAD_CAT_ID":"47363","FILE":"3871964","PERIAPSIS":"545.928","INCLINATION":"53.0527","TIME_SYSTEM":"UTC","CLASSIFICATION_TYPE":"U","TLE_LINE1":"1 47363U 21005Q   23085.90286168  .00032513  00000-0  21876-2 0  9999","OBJECT_NAME":"STARLINK-2077","OBJECT_TYPE":"PAYLOAD","ARG_OF_PERICENTER":"56.0351","APOAPSIS":"548.089","SEMIMAJOR_AXIS":"6925.143","REF_FRAME":"TEME","RA_OF_ASC_NODE":"224.4797","ECCENTRICITY":"0.00015600","BSTAR":"0.00218760000000","LAUNCH_DATE":"2021-01-20","MEAN_MOTION_DDOT":"0.0000000000000","COUNTRY_CODE":"US","MEAN_MOTION":"15.06466966","TLE_LINE2":"2 47363  53.0527 224.4797 0001560  56.0351 304.0786 15.06466966120442","ELEMENT_SET_NO":"999"}];
